STARLINK-3138
1 19430C 21104Y   21326.14775083 -.00861288  00000-0 -32064-2 0  3263
2 19430  53.2177  90.8250 0024510  64.8719 236.9112 15.87633641    17
